#aV2024  2 19  0  0  0.00000000     288 DD+AD WGS84 FIT  NGA
## 2302  86400.00000000   300.00000000 60359 0.0000000000000
+   32     1  2  3  4  5  6  7  8  9 10 11 12 13 14 15 16 17
+         18 19 20 21 22 23 24 25 26 27 28 29 30 31 32  0  0
+          0  0  0  0  0  0  0  0  0  0  0  0  0  0  0  0  0
+          0  0  0  0  0  0  0  0  0  0  0  0  0  0  0  0  0
+          0  0  0  0  0  0  0  0  0  0  0  0  0  0  0  0  0
++         2  2  2  2  2  2  2  2  2  2  2  2  2  2  2  2  2
++         2  2  2  2  2  2  2  2  2  2  2  2  2  2  2  0  0
++         0  0  0  0  0  0  0  0  0  0  0  0  0  0  0  0  0
++         0  0  0  0  0  0  0  0  0  0  0  0  0  0  0  0  0
++         0  0  0  0  0  0  0  0  0  0  0  0  0  0  0  0  0
%c cc cc ccc ccc cccc cccc cccc cccc ccccc ccccc ccccc ccccc
%c cc cc ccc ccc cccc cccc cccc cccc ccccc ccccc ccccc ccccc
%f  0.0000000  0.000000000  0.00000000000  0.000000000000000
%f  0.0000000  0.000000000  0.00000000000  0.000000000000000
%i    0    0    0    0      0      0      0      0         0
%i    0    0    0    0      0      0      0      0         0
/*      NGA, ST. LOUIS,MO.                                  
/*   EPHEMERIS COMPUTED FROM 2 DAYS OF DATA                 
/*   EPOCHA v9 SMOOTHER                                     
/*   G2296 IERS2010 SATIGS SATAPC                           
*  2024  2 19 12 15  0.00000000
P  1 -23427.920048 -12443.933144   3056.097607    170.189594                    
V  1  -2743.933999  -3624.123177 -31875.708929      0.016016                    
P  2 -21877.659198 -14403.348466  -4662.813307   -483.035297                    
V  2   6886.688987    730.701296 -31010.501629      0.059405                    
P  3 -11849.052156 -15112.854847  18259.507132    202.981124                    
V  3   1669.940010 -23347.686019 -17982.807603      0.238579                    
P  4 -17488.567159  -5999.456010  19132.110918    295.510569                    
V  4  21032.096326 -12046.879491  15327.623803      0.093508                    
P  5   6789.003054  24096.536380  -8902.348858   -162.389102                    
V  5  -2042.598678  11142.670775  29255.479165     -0.013954                    
P  6  -8314.161252  12027.872617  22242.963578    400.968609                    
V  6 -23782.337758 -14761.620574   -804.701703     -0.151107                    
P  7 -22947.264665  -3066.771134 -12937.749538    -65.626236                    
V  7 -13409.191190 -10821.697862  24921.718267     -0.090242                    
P  8 -10175.776855 -11776.133390 -21645.742482   -167.789704                    
V  8  23372.009495 -14008.757045  -2958.780388     -0.018281                    
P  9 -23903.232541   5792.688138  10020.176788     97.356875                    
V  9   9791.977134  -8671.144699  28085.650978      0.127734                    
P 10  10751.322663 -18275.015036 -15582.845230      1.004009                    
V 10   1378.761645  20280.070443 -22846.011034      0.008114                    
P 11   3769.039087  18280.518703  18939.238637   -580.993475                    
V 11 -20624.547197 -12272.351475  15924.302272     -0.126571                    
P 12  10875.634718  16337.746073  17639.854042   -479.496173                    
V 12  -3665.927339  22707.637663 -18406.808323     -0.037021                    
P 13   -394.766094  15851.403147 -21474.795421    626.952043                    
V 13 -25274.399578   8940.130674   7348.318383      0.034754                    
P 14 -13379.301550  14565.861731 -17615.057753    329.800877                    
V 14   -973.204552 -22597.923211 -18110.857172      0.099545                    
P 15  11475.743216  11314.217872 -21615.619967    129.310610                    
V 15 -20848.876012  16190.980323  -2447.954668      0.039472                    
P 16    -92.194938 -26040.302944  -4105.042610   -359.251779                    
V 16   3579.228054  -4513.172913  31514.150108      0.083972                    
P 17 -22883.348550  13342.939633   3278.918436    716.488566                    
V 17  -4266.828955   -544.529727 -31516.068469     -0.012290                    
P 18  22071.486512   2042.925434 -14753.268222   -558.945023                    
V 18  14921.891333  11322.881318  23687.104159     -0.082175                    
P 19 -17637.894629  15878.905934  11355.961898    442.828058                    
V 19 -14624.323157   3466.678299 -27468.485017      0.052962                    
P 20    618.815726  26208.391715   4842.063428    386.920059                    
V 20  -3775.559691  -5532.763084  30660.865718     -0.014273                    
P 21 -19021.644975 -16512.762994  -9365.269079    134.370120                    
V 21  11856.232205   3691.766602 -28126.390521     -0.013919                    
P 22 -10403.523796  21530.334598 -11439.047485     28.700744                    
V 22   -613.835485 -15237.076437 -26828.075505     -0.061698                    
P 23  14452.778594  -5635.079428 -21509.830816    159.496747                    
V 23    819.726265  27340.561229  -6787.362228      0.081518                    
P 24  20246.937715  15975.240762  -7603.991490   -434.225832                    
V 24  -9455.940797  -1208.499012 -28897.515841     -0.060855                    
P 25  15032.709746   4737.636169  21069.115278    489.048657                    
V 25   -550.776089  27550.492729  -5445.153120      0.011385                    
P 26   4417.712812 -24739.809980   7847.663357    188.561991                    
V 26   4401.085450  10072.974421  29101.338667     -0.040918                    
P 27   3148.898018 -17544.519195 -19826.231349     -5.371958                    
V 27  22201.228140 -10916.491966  13798.543292     -0.032502                    
P 28  10940.248702 -11072.639510  21499.090045   -136.299605                    
V 28  23659.631642  13721.260764  -4972.917777     -0.129182                    
P 29  23907.862569  -2397.750818  11379.842213   -606.659758                    
V 29 -12325.312317   7848.345891  27326.740906      0.008059                    
P 30 -16577.603636   6800.008498 -19555.403749   -430.549358                    
V 30 -20784.278224 -14179.596637  12336.792210      0.050168                    
P 31   1639.002176 -16271.089513  20638.981329   -227.816901                    
V 31  23215.076522  13434.302845   9054.732996     -0.001153                    
P 32  20286.387871 -16045.233191   5732.481797   -612.429958                    
V 32   7548.781435   -998.393639 -30784.308560     -0.019229                    
EOF
